[{"OBJECT_NAME":"YUNHAI-2 02B","OBJECT_ID":"2024-052B","EPOCH":"2026-03-09T23:36:35.688096","MEAN_MOTION":14.27934606,"ECCENTRICITY":0.00049008,"INCLINATION":50.0096,"RA_OF_ASC_NODE":82.8635,"ARG_OF_PERICENTER":204.1561,"MEAN_ANOMALY":155.9125,"EPHEMERIS_TYPE":0,"CLASSIFICATION_TYPE":"U","NORAD_CAT_ID":59281,"ELEMENT_SET_NO":999,"REV_AT_EPOCH":10243,"BSTAR":0.00011696599,"MEAN_MOTION_DOT":1.31e-6,"MEAN_MOTION_DDOT":0},{"OBJECT_NAME":"NOAA 16 DEB","OBJECT_ID":"2000-055HW","EPOCH":"2026-03-09T10:04:32.454048","MEAN_MOTION":14.25195941,"ECCENTRICITY":0.00212482,"INCLINATION":98.6921,"RA_OF_ASC_NODE":136.1943,"ARG_OF_PERICENTER":2.6166,"MEAN_ANOMALY":357.5121,"EPHEMERIS_TYPE":0,"CLASSIFICATION_TYPE":"U","NORAD_CAT_ID":41353,"ELEMENT_SET_NO":999,"REV_AT_EPOCH":52176,"BSTAR":0.0016170276,"MEAN_MOTION_DOT":3.765e-5,"MEAN_MOTION_DDOT":0}]
